COMMENT,ORIGINATOR,NORAD_CAT_ID,OBJECT_NAME,OBJECT_TYPE,CLASSIFICATION_TYPE,INTLDES,EPOCH,EPOCH_MICROSECONDS,MEAN_MOTION,ECCENTRICITY,INCLINATION,RA_OF_ASC_NODE,ARG_OF_PERICENTER,MEAN_ANOMALY,EPHEMERIS_TYPE,ELEMENT_SET_NO,REV_AT_EPOCH,BSTAR,MEAN_MOTION_DOT,MEAN_MOTION_DDOT,FILE,TLE_LINE0,TLE_LINE1,TLE_LINE2,OBJECT_ID,OBJECT_NUMBER,SEMIMAJOR_AXIS,PERIOD,APOGEE,PERIGEE,DECAYED,date
GENERATED VIA SPACETRACK.ORG API,18 SPCS,48897,SPACEBEE-109,PAYLOAD,U,21059U,2023/3/16 8:16,16896,15.25825668,0.0008629,97.5827,210.8164,237.257,122.7836,0,999,9522,0.001944,0.00049985,0,3862295,0 SPACEBEE-109,1 48897U 21059U   23075.34506964  .00049985  00000-0  19440-2 0  9992,2 48897  97.5827 210.8164 0008629 237.2570 122.7836 15.25825668 95224,2021-059U,48897,6866.444,94.375,494.234,482.384,0,
GENERATED VIA SPACETRACK.ORG API,18 SPCS,48897,SPACEBEE-109,PAYLOAD,U,21059U,2023/3/16 20:52,612224,15.25860165,0.0008624,97.5825,211.3485,235.5314,124.5109,0,999,9530,0.0013844,0.00035543,0,3862402,0 SPACEBEE-109,1 48897U 21059U   23075.86970616  .00035543  00000-0  13844-2 0  9995,2 48897  97.5825 211.3485 0008624 235.5314 124.5109 15.25860165 95309,2021-059U,48897,6866.341,94.373,494.127,482.284,0,
GENERATED VIA SPACETRACK.ORG API,18 SPCS,48897,SPACEBEE-109,PAYLOAD,U,21059U,2023/3/17 7:53,167616,15.25893804,0.0008645,97.5824,211.8138,234.5481,125.4951,0,999,9537,0.0013475,0.00034625,0,3863278,0 SPACEBEE-109,1 48897U 21059U   23076.32875194  .00034625  00000-0  13475-2 0  9992,2 48897  97.5824 211.8138 0008645 234.5481 125.4951 15.25893804 95373,2021-059U,48897,6866.24,94.371,494.041,482.169,0,
GENERATED VIA SPACETRACK.ORG API,18 SPCS,48897,SPACEBEE-109,PAYLOAD,U,21059U,2023/3/17 22:03,327008,15.259402,0.0008593,97.5826,212.413,233.1032,126.9419,0,999,9546,0.0014715,0.00037887,0,3863641,0 SPACEBEE-109,1 48897U 21059U   23076.91893897  .00037887  00000-0  14715-2 0  9998,2 48897  97.5826 212.4130 0008593 233.1032 126.9419 15.25940200 95461,2021-059U,48897,6866.101,94.368,493.866,482.066,0,
GENERATED VIA SPACETRACK.ORG API,18 SPCS,48897,SPACEBEE-109,PAYLOAD,U,21059U,2023/3/18 21:39,140288,15.26006921,0.0008593,97.5833,213.4104,228.7578,131.292,0,999,9561,0.0012647,0.00032594,0,3864479,0 SPACEBEE-109,1 48897U 21059U   23077.90254792  .00032594  00000-0  12647-2 0  9995,2 48897  97.5833 213.4104 0008593 228.7578 131.2920 15.26006921 95613,2021-059U,48897,6865.901,94.364,493.665,481.866,0,
GENERATED VIA SPACETRACK.ORG API,18 SPCS,48897,SPACEBEE-109,PAYLOAD,U,21059U,2023/3/19 3:57,803616,15.26026869,0.000859,97.5833,213.6765,227.8633,132.1876,0,999,9565,0.001364,0.00035192,0,3864579,0 SPACEBEE-109,1 48897U 21059U   23078.16483569  .00035192  00000-0  13640-2 0  9991,2 48897  97.5833 213.6765 0008590 227.8633 132.1876 15.26026869 95654,2021-059U,48897,6865.841,94.363,493.603,481.808,0,
GENERATED VIA SPACETRACK.ORG API,18 SPCS,48897,SPACEBEE-109,PAYLOAD,U,21059U,2023/3/19 8:40,872480,15.26041265,0.0008604,97.5835,213.8761,227.3257,132.7257,0,999,9568,0.0013308,0.00034345,0,3865049,0 SPACEBEE-109,1 48897U 21059U   23078.36154945  .00034345  00000-0  13308-2 0  9996,2 48897  97.5835 213.8761 0008604 227.3257 132.7257 15.26041265 95686,2021-059U,48897,6865.797,94.362,493.57,481.755,0,
GENERATED VIA SPACETRACK.ORG API,18 SPCS,48897,SPACEBEE-109,PAYLOAD,U,21059U,2023/3/19 21:15,854752,15.26081712,0.0008655,97.5835,214.4087,225.3921,134.6612,0,999,9576,0.0013195,0.00034093,0,3865354,0 SPACEBEE-109,1 48897U 21059U   23078.88610943  .00034093  00000-0  13195-2 0  9992,2 48897  97.5835 214.4087 0008655 225.3921 134.6612 15.26081712 95762,2021-059U,48897,6865.676,94.359,493.483,481.599,0,
GENERATED VIA SPACETRACK.ORG API,18 SPCS,48897,SPACEBEE-109,PAYLOAD,U,21059U,2023/3/20 8:16,658496,15.26117747,0.0008666,97.5836,214.8744,224.0402,136.0146,0,999,9583,0.0014458,0.00037421,0,3865746,0 SPACEBEE-109,1 48897U 21059U   23079.34508864  .00037421  00000-0  14458-2 0  9993,2 48897  97.5836 214.8744 0008666 224.0402 136.0146 15.26117747 95833,2021-059U,48897,6865.568,94.357,493.383,481.483,0,
GENERATED VIA SPACETRACK.ORG API,18 SPCS,48897,SPACEBEE-109,PAYLOAD,U,21059U,2023/3/20 8:16,658496,15.26117747,0.0008666,97.5836,214.8744,224.0402,136.0146,0,999,9583,0.0014458,0.00037421,0,3865912,0 SPACEBEE-109,1 48897U 21059U   23079.34508864  .00037421  00000-0  14458-2 0  9993,2 48897  97.5836 214.8744 0008666 224.0402 136.0146 15.26117747 95833,2021-059U,48897,6865.568,94.357,493.383,481.483,0,
GENERATED VIA SPACETRACK.ORG API,18 SPCS,48897,SPACEBEE-109,PAYLOAD,U,21059U,2023/3/20 16:09,694080,15.26142976,0.0008659,97.5835,215.207,222.853,137.2034,0,999,9588,0.0015034,0.00038952,0,3866115,0 SPACEBEE-109,1 48897U 21059U   23079.67292470  .00038952  00000-0  15034-2 0  9993,2 48897  97.5835 215.2070 0008659 222.8530 137.2034 15.26142976 95885,2021-059U,48897,6865.492,94.356,493.302,481.413,0,
GENERATED VIA SPACETRACK.ORG API,18 SPCS,48897,SPACEBEE-109,PAYLOAD,U,21059U,2023/3/21 7:53,278304,15.26195885,0.0008664,97.5838,215.8723,221.002,139.0567,0,999,9598,0.0015344,0.00039825,0,3866730,0 SPACEBEE-109,1 48897U 21059U   23080.32857961  .00039825  00000-0  15344-2 0  9993,2 48897  97.5838 215.8723 0008664 221.0020 139.0567 15.26195885 95989,2021-059U,48897,6865.334,94.352,493.147,481.251,0,
GENERATED VIA SPACETRACK.ORG API,18 SPCS,48897,SPACEBEE-109,PAYLOAD,U,21059U,2023/3/21 22:02,356544,15.26242891,0.0008621,97.5839,216.4712,219.0712,140.9904,0,999,9607,0.0015009,0.00039005,0,3866953,0 SPACEBEE-109,1 48897U 21059U   23080.91864996  .00039005  00000-0  15009-2 0  9992,2 48897  97.5839 216.4712 0008621 219.0712 140.9904 15.26242891 96070,2021-059U,48897,6865.193,94.349,492.976,481.139,0,
GENERATED VIA SPACETRACK.ORG API,18 SPCS,48897,SPACEBEE-109,PAYLOAD,U,21059U,2023/3/22 2:46,1888,15.26259936,0.0008616,97.584,216.6708,218.2977,141.765,0,999,9610,0.0015844,0.00041212,0,3867107,0 SPACEBEE-109,1 48897U 21059U   23081.11533567  .00041212  00000-0  15844-2 0  9992,2 48897  97.5840 216.6708 0008616 218.2977 141.7650 15.26259936 96106,2021-059U,48897,6865.142,94.348,492.922,481.092,0,
GENERATED VIA SPACETRACK.ORG API,18 SPCS,48897,SPACEBEE-109,PAYLOAD,U,21059U,2023/3/22 21:38,679872,15.26329631,0.0008585,97.5844,217.4692,215.2901,144.7769,0,999,9622,0.0015775,0.00041117,0,3868201,0 SPACEBEE-109,1 48897U 21059U   23081.90205648  .00041117  00000-0  15775-2 0  9992,2 48897  97.5844 217.4692 0008585 215.2901 144.7769 15.26329631 96227,2021-059U,48897,6864.933,94.344,492.691,480.904,0,
GENERATED VIA SPACETRACK.ORG API,18 SPCS,48897,SPACEBEE-109,PAYLOAD,U,21059U,2023/3/23 8:39,67552,15.26363784,0.0008596,97.5848,217.9349,213.744,146.3252,0,999,9629,0.0013933,0.00036322,0,3868327,0 SPACEBEE-109,1 48897U 21059U   23082.36096143  .00036322  00000-0  13933-2 0  9997,2 48897  97.5848 217.9349 0008596 213.7440 146.3252 15.26363784 96297,2021-059U,48897,6864.83,94.342,492.596,480.794,0,
GENERATED VIA SPACETRACK.ORG API,18 SPCS,48897,SPACEBEE-109,PAYLOAD,U,21059U,2023/3/23 8:39,67552,15.26363784,0.0008596,97.5848,217.9349,213.744,146.3252,0,999,9629,0.0013933,0.00036322,0,3868494,0 SPACEBEE-109,1 48897U 21059U   23082.36096143  .00036322  00000-0  13933-2 0  9997,2 48897  97.5848 217.9349 0008596 213.7440 146.3252 15.26363784 96297,2021-059U,48897,6864.83,94.342,492.596,480.794,0,
GENERATED VIA SPACETRACK.ORG API,18 SPCS,48897,SPACEBEE-109,PAYLOAD,U,21059U,2023/3/23 19:40,280192,15.26421185,0.0008585,97.585,218.4008,212.2951,147.7762,0,999,9636,0.0021365,0.00055979,0,3868612,0 SPACEBEE-109,1 48897U 21059U   23082.81985278  .00055979  00000-0  21365-2 0  9990,2 48897  97.5850 218.4008 0008585 212.2951 147.7762 15.26421185 96366,2021-059U,48897,6864.658,94.338,492.417,480.63,0,
GENERATED VIA SPACETRACK.ORG API,18 SPCS,48897,SPACEBEE-109,PAYLOAD,U,21059U,2023/3/23 21:14,220960,15.2642728,0.0008579,97.585,218.4673,212.051,148.0208,0,999,9637,0.0021256,0.00055701,0,3868816,0 SPACEBEE-109,1 48897U 21059U   23082.88540765  .00055701  00000-0  21256-2 0  9997,2 48897  97.5850 218.4673 0008579 212.0510 148.0208 15.26427280 96378,2021-059U,48897,6864.64,94.338,492.394,480.616,0,
GENERATED VIA SPACETRACK.ORG API,18 SPCS,48897,SPACEBEE-109,PAYLOAD,U,21059U,2023/3/24 8:15,548352,15.26547923,0.0008548,97.5849,218.9331,210.7136,149.3603,0,999,9644,0.0052359,0.00139359,0,3869473,0 SPACEBEE-109,1 48897U 21059U   23083.34427718  .00139359  00000-0  52359-2 0  9991,2 48897  97.5849 218.9331 0008548 210.7136 149.3603 15.26547923 96445,2021-059U,48897,6864.278,94.33,492.011,480.276,0,
GENERATED VIA SPACETRACK.ORG API,18 SPCS,48897,SPACEBEE-109,PAYLOAD,U,21059U,2023/3/24 8:15,548352,15.26547923,0.0008548,97.5849,218.9331,210.7136,149.3603,0,999,9644,0.0052359,0.00139359,0,3869846,0 SPACEBEE-109,1 48897U 21059U   23083.34427718  .00139359  00000-0  52359-2 0  9991,2 48897  97.5849 218.9331 0008548 210.7136 149.3603 15.26547923 96445,2021-059U,48897,6864.278,94.33,492.011,480.276,0,
GENERATED VIA SPACETRACK.ORG API,18 SPCS,48897,SPACEBEE-109,PAYLOAD,U,21059U,2023/3/24 14:33,117376,15.26527089,0.0008582,97.5851,219.1995,209.9946,150.0802,0,999,9648,0.002604,0.00068577,0,3869702,0 SPACEBEE-109,1 48897U 21059U   23083.60648284  .00068577  00000-0  26040-2 0  9994,2 48897  97.5851 219.1995 0008582 209.9946 150.0802 15.26527089 96489,2021-059U,48897,6864.341,94.332,492.097,480.315,0,
GENERATED VIA SPACETRACK.ORG API,18 SPCS,48897,SPACEBEE-109,PAYLOAD,U,21059U,2023/3/24 20:50,157632,15.26546519,0.0008581,97.585,219.4658,209.3713,150.7043,0,999,9652,0.0016152,0.00042385,0,3869931,0 SPACEBEE-109,1 48897U 21059U   23083.86868238  .00042385  00000-0  16152-2 0  9997,2 48897  97.5850 219.4658 0008581 209.3713 150.7043 15.26546519 96520,2021-059U,48897,6864.282,94.331,492.038,480.257,0,
